#dV2023  1 20 22  0  0.00000000    1682       CTS   FIT  GFZ
## 2245 511200.00000000    30.00000000 59964 0.9166666666667
+    1   L65  0  0  0  0  0  0  0  0  0  0  0  0  0  0  0  0
+          0  0  0  0  0  0  0  0  0  0  0  0  0  0  0  0  0
+          0  0  0  0  0  0  0  0  0  0  0  0  0  0  0  0  0
+          0  0  0  0  0  0  0  0  0  0  0  0  0  0  0  0  0
+          0  0  0  0  0  0  0  0  0  0  0  0  0  0  0  0  0
++         0  0  0  0  0  0  0  0  0  0  0  0  0  0  0  0  0
++         0  0  0  0  0  0  0  0  0  0  0  0  0  0  0  0  0
++         0  0  0  0  0  0  0  0  0  0  0  0  0  0  0  0  0
++         0  0  0  0  0  0  0  0  0  0  0  0  0  0  0  0  0
++         0  0  0  0  0  0  0  0  0  0  0  0  0  0  0  0  0
%c L  cc GPS ccc cccc cccc cccc cccc ccccc ccccc ccccc ccccc
%c cc cc ccc ccc cccc cccc cccc cccc ccccc ccccc ccccc ccccc
%f  0.0000000  0.000000000  0.00000000000  0.000000000000000
%f  0.0000000  0.000000000  0.00000000000  0.000000000000000
%i    0    0    0    0      0      0      0      0         0
%i    0    0    0    0      0      0      0      0         0
/* CCCCCCCCCCCCCCCCCCCCCCCCCCCCCCCCCCCCCCCCCCCCCCCCCCCCCCCCCCCCCCCCCCCCCCCCCCCCC
/* C                             GFZ RSO-ORBIT                                 C
/* C DOI: https://doi.org/10.5880/GFZ_ORBIT/RSO/L65_G_v02                      C
/* C                                                                           C
/* C DORIS        RMS: not applicable                                          C
/* C GNSS-E Code  RMS: not applicable                                          C
/* C GNSS-E Phase RMS: not applicable                                          C
/* C GNSS-G Code  RMS:  48.232 [cm]   Obs.acc.:     14405 Obs.eli.:      1230  C
/* C GNSS-G Phase RMS:   4.027 [mm]   Obs.acc.:     14405 Obs.eli.:      1230  C
/* C SLR          RMS:   1.318 [cm]   Obs.acc.:        25 Obs.eli.:         0  C
/* C                                                                           C
/* CCCCCCCCCCCCCCCCCCCCCCCCCCCCCCCCCCCCCCCCCCCCCCCCCCCCCCCCCCCCCCCCCCCCCCCCCCCCC
*  2023  1 20 23 16 30.00000000
PL65   -478.644619  -3306.930301   6004.167190   1121.368687
VL65   9853.230171  65764.378923  36912.515283 999999.999999
*  2023  1 20 23 17  0.00000000
PL65   -448.393866  -3107.925905   6111.569076   1121.836508
VL65  10312.917109  66892.744498  34682.185039 999999.999999
*  2023  1 20 23 17 30.00000000
PL65   -416.773660  -2905.649260   6212.222186   1122.304414
VL65  10766.060979  67945.687267  32413.742132 999999.999999
*  2023  1 20 23 18  0.00000000
PL65   -383.804869  -2700.328311   6306.015904   1122.772316
VL65  11211.836089  68922.103262  30109.675139 999999.999999
*  2023  1 20 23 18 30.00000000
PL65   -349.510835  -2492.194188   6392.847138   1123.240223
VL65  11649.419851  69820.974977  27772.510360 999999.999999
*  2023  1 20 23 19  0.00000000
PL65   -313.917359  -2281.480939   6472.620427   1123.708171
VL65  12077.994271  70641.372247  25404.807504 999999.999999
*  2023  1 20 23 19 30.00000000
PL65   -277.052691  -2068.425275   6545.248035   1124.176094
VL65  12496.746911  71382.451082  23009.157368 999999.999999
*  2023  1 20 23 20  0.00000000
PL65   -238.947506  -1853.266310   6610.650044   1124.644051
VL65  12904.871606  72043.454768  20588.181223 999999.999999
*  2023  1 20 23 20 30.00000000
PL65   -199.634888  -1636.245292   6668.754444   1125.111910
VL65  13301.569575  72623.716351  18144.528164 999999.999999
*  2023  1 20 23 21  0.00000000
PL65   -159.150305  -1417.605333   6719.497208   1125.579776
VL65  13686.051158  73122.659951  15680.871161 999999.999999
*  2023  1 20 23 21 30.00000000
PL65   -117.531577  -1197.591138   6762.822360   1126.047623
VL65  14057.537691  73539.800490  13199.903199 999999.999999
*  2023  1 20 23 22  0.00000000
PL65    -74.818841   -976.448732   6798.682027 999999.999999
VL65  14415.262935  73874.742657  10704.335167 999999.999999
*  2023  1 20 23 22 30.00000000
PL65    -31.054514   -754.425189   6827.036497   1126.983241
VL65  14758.473792  74127.181477   8196.894415 999999.999999
*  2023  1 20 23 23  0.00000000
PL65     13.716748   -531.768363   6847.854261   1127.451266
VL65  15086.431275  74296.903377   5680.321759 999999.999999
*  2023  1 20 23 23 30.00000000
PL65     59.448096   -308.726610   6861.112047   1127.919286
VL65  15398.412215  74383.786635   3157.368272 999999.999999
*  2023  1 20 23 24  0.00000000
PL65    106.090538    -85.548514   6866.794848   1128.387151
VL65  15693.710506  74387.801912    630.791729 999999.999999
*  2023  1 20 23 24 30.00000000
PL65    153.592988    137.517392   6864.895935   1128.854697
VL65  15971.637619  74309.011375  -1896.647249 999999.999999
*  2023  1 20 23 25  0.00000000
PL65    201.902321    360.222897   6855.416863   1129.322397
VL65  16231.523180  74147.567065  -4422.186903 999999.999999
*  2023  1 20 23 25 30.00000000
PL65    250.963434    582.320381   6838.367475   1129.790230
VL65  16472.716559  73903.711495  -6943.065374 999999.999999
*  2023  1 20 23 26  0.00000000
PL65    300.719299    803.563086   6813.765891   1130.258106
VL65  16694.588722  73577.778417  -9456.524070 999999.999999
*  2023  1 20 23 26 30.00000000
PL65    351.111038   1023.705395   6781.638503   1130.725962
VL65  16896.533389  73170.192643 -11959.810738 999999.999999
*  2023  1 20 23 27  0.00000000
PL65    402.077989   1242.503102   6742.019941   1131.193751
VL65  17077.968312  72681.470450 -14450.183479 999999.999999
*  2023  1 20 23 27 30.00000000
PL65    453.557779   1459.713684   6694.953043   1131.661634
VL65  17238.335845  72112.217262 -16924.915438 999999.999999
*  2023  1 20 23 28  0.00000000
PL65    505.486402   1675.096564   6640.488801   1132.129620
VL65  17377.102876  71463.124958 -19381.295788 999999.999999
*  2023  1 20 23 28 30.00000000
PL65    557.798288   1888.413370   6578.686315   1132.597707
VL65  17493.762020  70734.972057 -21816.630548 999999.999999
*  2023  1 20 23 29  0.00000000
PL65    610.426386   2099.428198   6509.612738   1133.065710
VL65  17587.833492  69928.623754 -24228.245224 999999.999999
*  2023  1 20 23 29 30.00000000
PL65    663.302249   2307.907866   6433.343216   1133.533930
VL65  17658.866253  69045.031355 -26613.487603 999999.999999
*  2023  1 20 23 30  0.00000000
PL65    716.356122   2513.622176   6349.960813   1134.002299
VL65  17706.438443  68085.231778 -28969.730522 999999.999999
*  2023  1 20 23 30 30.00000000
PL65    769.517026   2716.344169   6259.556433   1134.470592
VL65  17730.157930  67050.347183 -31294.374845 999999.999999
*  2023  1 20 23 31  0.00000000
PL65    822.712854   2915.850378   6162.228732   1134.938566
VL65  17729.663311  65941.584157 -33584.852781 999999.999999
*  2023  1 20 23 31 30.00000000
PL65    875.870461   3111.921082   6058.084017   1135.406503
VL65  17704.625007  64760.232369 -35838.630989 999999.999999
*  2023  1 20 23 32  0.00000000
PL65    928.915762   3304.340552   5947.236142   1135.874172
VL65  17654.746080  63507.662936 -38053.213703 999999.999999
*  2023  1 20 23 32 30.00000000
PL65    981.773832   3492.897290   5829.806387   1136.341858
VL65  17579.762777  62185.326362 -40226.145396 999999.999999
*  2023  1 20 23 33  0.00000000
PL65   1034.369004   3677.384269   5705.923336   1136.809644
VL65  17479.445305  60794.750915 -42355.012574 999999.999999
*  2023  1 20 23 33 30.00000000
PL65   1086.624974   3857.599159   5575.722747   1137.277282
VL65  17353.598867  59337.541838 -44437.446114 999999.999999
*  2023  1 20 23 34  0.00000000
PL65   1138.464908   4033.344565   5439.347416   1137.744692
VL65  17202.064213  57815.380273 -46471.124332 999999.999999
*  2023  1 20 23 34 30.00000000
PL65   1189.811546   4204.428242   5296.947030   1138.211461
VL65  17024.718042  56230.021748 -48453.775767 999999.999999
*  2023  1 20 23 35  0.00000000
PL65   1240.587317   4370.663324   5148.678009   1138.678476
VL65  16821.474026  54583.294919 -50383.182098 999999.999999
*  2023  1 20 23 35 30.00000000
PL65   1290.714443   4531.868541   4994.703345   1139.145659
VL65  16592.283675  52877.099685 -52257.182681 999999.999999
*  2023  1 20 23 36  0.00000000
PL65   1340.115060   4687.868419   4835.192419   1139.613159
VL65  16337.135498  51113.402495 -54073.678623 999999.999999
*  2023  1 20 23 36 30.00000000
PL65   1388.711322   4838.493480   4670.320818   1140.080914
VL65  16056.054309  49294.231412 -55830.632031 999999.999999
*  2023  1 20 23 37  0.00000000
PL65   1436.425514   4983.580422   4500.270151   1140.548796
VL65  15749.103305  47421.676916 -57526.064100 999999.999999
*  2023  1 20 23 37 30.00000000
PL65   1483.180173   5122.972310   4325.227871   1141.016754
VL65  15416.385172  45497.893122 -59158.060095 999999.999999
*  2023  1 20 23 38  0.00000000
PL65   1528.898197   5256.518762   4145.387076   1141.484634
VL65  15058.039423  43525.093281 -60724.772172 999999.999999
*  2023  1 20 23 38 30.00000000
PL65   1573.502959   5384.076123   3960.946308   1141.952501
VL65  14674.244272  41505.549288 -62224.416929 999999.999999
*  2023  1 20 23 39  0.00000000
PL65   1616.918434   5505.507645   3772.109356   1142.420295
VL65  14265.222596  39441.594493 -63655.283272 999999.999999
*  2023  1 20 23 39 30.00000000
PL65   1659.069333   5620.683665   3579.085016   1142.888020
VL65  13831.240288  37335.615862 -65015.745015 999999.999999
*  2023  1 20 23 40  0.00000000
PL65   1699.881216   5729.481746   3382.086835   1143.355843
VL65  13372.599487  35190.044075 -66304.260319 999999.999999
*  2023  1 20 23 40 30.00000000
PL65   1739.280606   5831.786808   3181.332866   1143.823763
VL65  12889.636924  33007.352396 -67519.365767 999999.999999
*  2023  1 20 23 41  0.00000000
PL65   1777.195089   5927.491256   2977.045439   1144.291730
VL65  12382.726525  30790.057326 -68659.675349 999999.999999
*  2023  1 20 23 41 30.00000000
PL65   1813.553430   6016.495107   2769.450919   1144.759696
VL65  11852.281524  28540.718409 -69723.883292 999999.999999
EOF
